0 NAVSTAR 15 (USA 42)
1 20185U 89064A   13281.90312837  .00000016  00000-0  00000+0 0  2899
2 20185 054.4246 248.5773 0014646 261.5998 258.5486 01.86085073169956
0 NAVSTAR 15 (USA 42)
1 20185U 89064A   13283.00775654  .00000014  00000-0  00000+0 0  2902
2 20185 054.4239 248.5391 0014583 261.6996 278.4683 01.86085111169978
0 NAVSTAR 15 (USA 42)
1 20185U 89064A   13283.00775654  .00000014  00000-0  00000+0 0  2913
2 20185 054.4239 248.5391 0014583 261.6996 278.4683 01.86085111169978
0 NAVSTAR 15 (USA 42)
1 20185U 89064A   13284.68505126  .00000002  00000-0  00000+0 0  2921
2 20185 054.4229 248.4811 0014556 261.6400 322.1925 01.86085191170003
0 NAVSTAR 15 (USA 42)
1 20185U 89064A   13285.66073946 -.00000011  00000-0  00000+0 0  2932
2 20185 054.4223 248.4474 0014542 261.6260 255.8462 01.86085236170021
0 NAVSTAR 15 (USA 42)
1 20185U 89064A   13285.66073946 -.00000011  00000-0  00000+0 0  2943
2 20185 054.4223 248.4474 0014542 261.6260 255.8462 01.86085236170021
0 NAVSTAR 15 (USA 42)
1 20185U 89064A   13285.66073946 -.00000011  00000-0  00000+0 0  2954
2 20185 054.4223 248.4474 0014542 261.6260 255.8462 01.86085236170021
0 NAVSTAR 15 (USA 42)
1 20185U 89064A   13289.50202328 -.00000057  00000-0  00000+0 0  2960
2 20185 054.4202 248.3148 0014537 261.7004 309.1542 01.86085330170090
0 NAVSTAR 15 (USA 42)
1 20185U 89064A   13289.50202328 -.00000057  00000-0  00000+0 0  2971
2 20185 054.4202 248.3148 0014537 261.7004 309.1542 01.86085330170090
0 NAVSTAR 15 (USA 42)
1 20185U 89064A   13290.33062939 -.00000059  00000-0  00000+0 0  2989
2 20185 054.4198 248.2862 0014511 261.8069 144.1543 01.86085331170112
0 NAVSTAR 15 (USA 42)
1 20185U 89064A   13291.17725772 -.00000057  00000-0  00000+0 0  2992
2 20185 054.4193 248.2570 0014498 261.8976 351.2440 01.86085332170123
0 NAVSTAR 15 (USA 42)
1 20185U 89064A   13291.17725772 -.00000057  00000-0  00000+0 0  3005
2 20185 054.4193 248.2570 0014498 261.8976 351.2440 01.86085332170123
0 NAVSTAR 15 (USA 42)
1 20185U 89064A   13292.73521420 -.00000047  00000-0  00000+0 0  3012
2 20185 054.4186 248.2032 0014490 261.9982 314.8631 01.86085309170152
0 NAVSTAR 15 (USA 42)
1 20185U 89064A   13293.79456176 -.00000038  00000-0  00000+0 0  3025
2 20185 054.4180 248.1667 0014472 262.1115 304.4374 01.86085281170170
0 NAVSTAR 15 (USA 42)
1 20185U 89064A   13295.44000985 -.00000026  00000-0  00000+0 0  3030
2 20185 054.4171 248.1099 0014452 262.2814 326.6012 01.86085214170209
0 NAVSTAR 15 (USA 42)
1 20185U 89064A   13295.44000985 -.00000026  00000-0  00000+0 0  3041
2 20185 054.4171 248.1099 0014452 262.2814 326.6012 01.86085214170209
0 NAVSTAR 15 (USA 42)
1 20185U 89064A   13295.44000985 -.00000026  00000-0  00000+0 0  3052
2 20185 054.4171 248.1099 0014452 262.2814 326.6012 01.86085214170209
0 NAVSTAR 15 (USA 42)
1 20185U 89064A   13295.44000985 -.00000026  00000-0  00000+0 0  3063
2 20185 054.4171 248.1099 0014452 262.2814 326.6012 01.86085214170209
0 NAVSTAR 15 (USA 42)
1 20185U 89064A   13295.44000985 -.00000026  00000-0  00000+0 0  3074
2 20185 054.4171 248.1099 0014452 262.2814 326.6012 01.86085214170209
